KUIPER-00197            
1 67769U 26030F   26062.89711522  .00046438  00000+0  13021-2 0  9990
2 67769  51.8832 247.0009 0001242  50.8204 309.2893 15.36127061  4206
KUIPER-00198            
1 67770U 26030G   26062.90162814  .00031818  00000+0  90787-3 0  9999
2 67770  51.8807 247.0252 0002903  34.1244 325.9929 15.35758054  4200
KUIPER-00199            
1 67771U 26030H   26062.92176618  .00037612  00000+0  11268-2 0  9993
2 67771  51.8801 247.1540 0010330  44.3634 315.8178 15.34097289  4204
KUIPER-00200            
1 67772U 26030J   26062.95446233  .00040662  00000+0  11191-2 0  9994
2 67772  51.8808 246.6337 0001466 206.5417 153.5495 15.36768054  4218
KUIPER-00203            
1 67773U 26030K   26062.75002315 -.01874134  00000+0 -80559-1 0  9997
2 67773  51.8808 248.1219 0011295  44.0684   1.8595 15.25804315  2748
KUIPER-00205            
1 67774U 26030L   26062.89784814  .00032400  00000+0  91417-3 0  9990
2 67774  51.8808 247.0010 0002559   4.8034 355.2976 15.36100413  4204
KUIPER-00208            
1 67775U 26030M   26062.93313961 -.00022268  00000+0 -68226-3 0  9992
2 67775  51.8823 247.2333 0013819  45.7223 314.4894 15.32727505  4206
KUIPER-00209            
1 67776U 26030N   26062.93691206  .00006614  00000+0  22693-3 0  9997
2 67776  51.8814 247.2558 0013138  49.1270 311.0851 15.31307478  4208
KUIPER-00213            
1 67777U 26030P   26062.93381793  .00023914  00000+0  75801-3 0  9996
2 67777  51.8793 247.2300 0014856  47.8888 312.3357 15.32488459  4203
KUIPER-00214            
1 67778U 26030Q   26062.89183826  .00040562  00000+0  11251-2 0  9995
2 67778  51.8843 246.9683 0000864 204.6607 155.4338 15.36528048  4204
KUIPER-00215            
1 67779U 26030R   26062.92025272  .00031189  00000+0  93470-3 0  9999
2 67779  51.8830 247.1521 0009909  43.9472 316.2300 15.34184206  4206
KUIPER-00218            
1 67780U 26030S   26062.91138187  .00030707  00000+0  90055-3 0  9991
2 67780  51.8827 247.0926 0006375  35.4106 324.7303 15.34901253  4202
KUIPER-00220            
1 67781U 26030T   26062.91707682  .00036587  00000+0  10838-2 0  9996
2 67781  51.8804 247.1241 0008252  40.2110 319.9484 15.34484510  4202
KUIPER-00222            
1 67782U 26030U   26062.93728597  .00045706  00000+0  14416-2 0  9996
2 67782  51.8791 247.2516 0016423  44.5501 315.6801 15.32293490  4203
KUIPER-00223            
1 67783U 26030V   26062.92335791  .00029818  00000+0  89950-3 0  9998
2 67783  51.8815 247.1687 0012158  44.1674 316.0280 15.33975677  4208
KUIPER-00225            
1 67784U 26030W   26062.90313586  .00039258  00000+0  11210-2 0  9997
2 67784  51.8810 247.0351 0004027  23.9603 336.1570 15.35629941  4201
