[{"OBJECT_NAME":"KUIPER-00197","OBJECT_ID":"2026-030F","EPOCH":"2026-03-03T21:31:50.755008","MEAN_MOTION":15.36127061,"ECCENTRICITY":0.00012427,"INCLINATION":51.8832,"RA_OF_ASC_NODE":247.0009,"ARG_OF_PERICENTER":50.8204,"MEAN_ANOMALY":309.2893,"EPHEMERIS_TYPE":0,"CLASSIFICATION_TYPE":"U","NORAD_CAT_ID":67769,"ELEMENT_SET_NO":999,"REV_AT_EPOCH":420,"BSTAR":0.0013021363,"MEAN_MOTION_DOT":0.00046438,"MEAN_MOTION_DDOT":0},{"OBJECT_NAME":"KUIPER-00198","OBJECT_ID":"2026-030G","EPOCH":"2026-03-03T21:38:20.671296","MEAN_MOTION":15.35758054,"ECCENTRICITY":0.00029035,"INCLINATION":51.8807,"RA_OF_ASC_NODE":247.0252,"ARG_OF_PERICENTER":34.1244,"MEAN_ANOMALY":325.9929,"EPHEMERIS_TYPE":0,"CLASSIFICATION_TYPE":"U","NORAD_CAT_ID":67770,"ELEMENT_SET_NO":999,"REV_AT_EPOCH":420,"BSTAR":0.00090786663,"MEAN_MOTION_DOT":0.00031818,"MEAN_MOTION_DDOT":0},{"OBJECT_NAME":"KUIPER-00199","OBJECT_ID":"2026-030H","EPOCH":"2026-03-03T22:07:20.597952","MEAN_MOTION":15.34097289,"ECCENTRICITY":0.00103303,"INCLINATION":51.8801,"RA_OF_ASC_NODE":247.154,"ARG_OF_PERICENTER":44.3634,"MEAN_ANOMALY":315.8178,"EPHEMERIS_TYPE":0,"CLASSIFICATION_TYPE":"U","NORAD_CAT_ID":67771,"ELEMENT_SET_NO":999,"REV_AT_EPOCH":420,"BSTAR":0.0011268348,"MEAN_MOTION_DOT":0.00037612,"MEAN_MOTION_DDOT":0},{"OBJECT_NAME":"KUIPER-00200","OBJECT_ID":"2026-030J","EPOCH":"2026-03-03T22:54:25.545312","MEAN_MOTION":15.36768054,"ECCENTRICITY":0.00014665,"INCLINATION":51.8808,"RA_OF_ASC_NODE":246.6337,"ARG_OF_PERICENTER":206.5417,"MEAN_ANOMALY":153.5495,"EPHEMERIS_TYPE":0,"CLASSIFICATION_TYPE":"U","NORAD_CAT_ID":67772,"ELEMENT_SET_NO":999,"REV_AT_EPOCH":421,"BSTAR":0.0011191111,"MEAN_MOTION_DOT":0.00040662,"MEAN_MOTION_DDOT":0},{"OBJECT_NAME":"KUIPER-00203","OBJECT_ID":"2026-030K","EPOCH":"2026-03-03T18:00:02.000160","MEAN_MOTION":15.25804315,"ECCENTRICITY":0.00112952,"INCLINATION":51.8808,"RA_OF_ASC_NODE":248.1219,"ARG_OF_PERICENTER":44.0684,"MEAN_ANOMALY":1.8595,"EPHEMERIS_TYPE":0,"CLASSIFICATION_TYPE":"U","NORAD_CAT_ID":67773,"ELEMENT_SET_NO":999,"REV_AT_EPOCH":274,"BSTAR":-0.080559442,"MEAN_MOTION_DOT":-0.01874134,"MEAN_MOTION_DDOT":0},{"OBJECT_NAME":"KUIPER-00205","OBJECT_ID":"2026-030L","EPOCH":"2026-03-03T21:32:54.079296","MEAN_MOTION":15.36100413,"ECCENTRICITY":0.00025593,"INCLINATION":51.8808,"RA_OF_ASC_NODE":247.001,"ARG_OF_PERICENTER":4.8034,"MEAN_ANOMALY":355.2976,"EPHEMERIS_TYPE":0,"CLASSIFICATION_TYPE":"U","NORAD_CAT_ID":67774,"ELEMENT_SET_NO":999,"REV_AT_EPOCH":420,"BSTAR":0.00091417465,"MEAN_MOTION_DOT":0.000324,"MEAN_MOTION_DDOT":0},{"OBJECT_NAME":"KUIPER-00208","OBJECT_ID":"2026-030M","EPOCH":"2026-03-03T22:23:43.262304","MEAN_MOTION":15.32727505,"ECCENTRICITY":0.00138196,"INCLINATION":51.8823,"RA_OF_ASC_NODE":247.2333,"ARG_OF_PERICENTER":45.7223,"MEAN_ANOMALY":314.4894,"EPHEMERIS_TYPE":0,"CLASSIFICATION_TYPE":"U","NORAD_CAT_ID":67775,"ELEMENT_SET_NO":999,"REV_AT_EPOCH":420,"BSTAR":-0.00068226472,"MEAN_MOTION_DOT":-0.00022268,"MEAN_MOTION_DDOT":0},{"OBJECT_NAME":"KUIPER-00209","OBJECT_ID":"2026-030N","EPOCH":"2026-03-03T22:29:09.201984","MEAN_MOTION":15.31307478,"ECCENTRICITY":0.00131384,"INCLINATION":51.8814,"RA_OF_ASC_NODE":247.2558,"ARG_OF_PERICENTER":49.127,"MEAN_ANOMALY":311.0851,"EPHEMERIS_TYPE":0,"CLASSIFICATION_TYPE":"U","NORAD_CAT_ID":67776,"ELEMENT_SET_NO":999,"REV_AT_EPOCH":420,"BSTAR":0.00022693003,"MEAN_MOTION_DOT":6.614e-5,"MEAN_MOTION_DDOT":0},{"OBJECT_NAME":"KUIPER-00213","OBJECT_ID":"2026-030P","EPOCH":"2026-03-03T22:24:41.869152","MEAN_MOTION":15.32488459,"ECCENTRICITY":0.00148567,"INCLINATION":51.8793,"RA_OF_ASC_NODE":247.23,"ARG_OF_PERICENTER":47.8888,"MEAN_ANOMALY":312.3357,"EPHEMERIS_TYPE":0,"CLASSIFICATION_TYPE":"U","NORAD_CAT_ID":67777,"ELEMENT_SET_NO":999,"REV_AT_EPOCH":420,"BSTAR":0.00075801311,"MEAN_MOTION_DOT":0.00023914,"MEAN_MOTION_DDOT":0},{"OBJECT_NAME":"KUIPER-00214","OBJECT_ID":"2026-030Q","EPOCH":"2026-03-03T21:24:14.825664","MEAN_MOTION":15.36528048,"ECCENTRICITY":8.646e-5,"INCLINATION":51.8843,"RA_OF_ASC_NODE":246.9683,"ARG_OF_PERICENTER":204.6607,"MEAN_ANOMALY":155.4338,"EPHEMERIS_TYPE":0,"CLASSIFICATION_TYPE":"U","NORAD_CAT_ID":67778,"ELEMENT_SET_NO":999,"REV_AT_EPOCH":420,"BSTAR":0.0011250595,"MEAN_MOTION_DOT":0.00040562,"MEAN_MOTION_DDOT":0},{"OBJECT_NAME":"KUIPER-00215","OBJECT_ID":"2026-030R","EPOCH":"2026-03-03T22:05:09.835008","MEAN_MOTION":15.34184206,"ECCENTRICITY":0.00099091,"INCLINATION":51.883,"RA_OF_ASC_NODE":247.1521,"ARG_OF_PERICENTER":43.9472,"MEAN_ANOMALY":316.23,"EPHEMERIS_TYPE":0,"CLASSIFICATION_TYPE":"U","NORAD_CAT_ID":67779,"ELEMENT_SET_NO":999,"REV_AT_EPOCH":420,"BSTAR":0.00093469641,"MEAN_MOTION_DOT":0.00031189,"MEAN_MOTION_DDOT":0},{"OBJECT_NAME":"KUIPER-00218","OBJECT_ID":"2026-030S","EPOCH":"2026-03-03T21:52:23.393568","MEAN_MOTION":15.34901253,"ECCENTRICITY":0.00063757,"INCLINATION":51.8827,"RA_OF_ASC_NODE":247.0926,"ARG_OF_PERICENTER":35.4106,"MEAN_ANOMALY":324.7303,"EPHEMERIS_TYPE":0,"CLASSIFICATION_TYPE":"U","NORAD_CAT_ID":67780,"ELEMENT_SET_NO":999,"REV_AT_EPOCH":420,"BSTAR":0.00090054925,"MEAN_MOTION_DOT":0.00030707,"MEAN_MOTION_DDOT":0},{"OBJECT_NAME":"KUIPER-00220","OBJECT_ID":"2026-030T","EPOCH":"2026-03-03T22:00:35.437248","MEAN_MOTION":15.3448451,"ECCENTRICITY":0.00082523,"INCLINATION":51.8804,"RA_OF_ASC_NODE":247.1241,"ARG_OF_PERICENTER":40.211,"MEAN_ANOMALY":319.9484,"EPHEMERIS_TYPE":0,"CLASSIFICATION_TYPE":"U","NORAD_CAT_ID":67781,"ELEMENT_SET_NO":999,"REV_AT_EPOCH":420,"BSTAR":0.001083836,"MEAN_MOTION_DOT":0.00036587,"MEAN_MOTION_DDOT":0},{"OBJECT_NAME":"KUIPER-00222","OBJECT_ID":"2026-030U","EPOCH":"2026-03-03T22:29:41.507808","MEAN_MOTION":15.3229349,"ECCENTRICITY":0.00164236,"INCLINATION":51.8791,"RA_OF_ASC_NODE":247.2516,"ARG_OF_PERICENTER":44.5501,"MEAN_ANOMALY":315.6801,"EPHEMERIS_TYPE":0,"CLASSIFICATION_TYPE":"U","NORAD_CAT_ID":67782,"ELEMENT_SET_NO":999,"REV_AT_EPOCH":420,"BSTAR":0.0014416308,"MEAN_MOTION_DOT":0.00045706,"MEAN_MOTION_DDOT":0},{"OBJECT_NAME":"KUIPER-00223","OBJECT_ID":"2026-030V","EPOCH":"2026-03-03T22:09:38.123424","MEAN_MOTION":15.33975677,"ECCENTRICITY":0.00121588,"INCLINATION":51.8815,"RA_OF_ASC_NODE":247.1687,"ARG_OF_PERICENTER":44.1674,"MEAN_ANOMALY":316.028,"EPHEMERIS_TYPE":0,"CLASSIFICATION_TYPE":"U","NORAD_CAT_ID":67783,"ELEMENT_SET_NO":999,"REV_AT_EPOCH":420,"BSTAR":0.00089950289,"MEAN_MOTION_DOT":0.00029818,"MEAN_MOTION_DDOT":0},{"OBJECT_NAME":"KUIPER-00225","OBJECT_ID":"2026-030W","EPOCH":"2026-03-03T21:40:30.938304","MEAN_MOTION":15.35629941,"ECCENTRICITY":0.00040279,"INCLINATION":51.881,"RA_OF_ASC_NODE":247.0351,"ARG_OF_PERICENTER":23.9603,"MEAN_ANOMALY":336.157,"EPHEMERIS_TYPE":0,"CLASSIFICATION_TYPE":"U","NORAD_CAT_ID":67784,"ELEMENT_SET_NO":999,"REV_AT_EPOCH":420,"BSTAR":0.0011210072,"MEAN_MOTION_DOT":0.00039258,"MEAN_MOTION_DDOT":0}]
